OBJECT_NAME,OBJECT_ID,EPOCH,MEAN_MOTION,ECCENTRICITY,INCLINATION,RA_OF_ASC_NODE,ARG_OF_PERICENTER,MEAN_ANOMALY,EPHEMERIS_TYPE,CLASSIFICATION_TYPE,NORAD_CAT_ID,ELEMENT_SET_NO,REV_AT_EPOCH,BSTAR,MEAN_MOTION_DOT,MEAN_MOTION_DDOT
STARLINK-34279,2025-127V,2026-06-08T00:01:54.356448,15.27616050,.00015814,43.0001,30.2227,266.8613,93.2058,0,U,64389,999,5627,.11994625E-2,.32929E-3,0
STARLINK-34292,2025-127W,2026-06-08T21:28:38.220384,15.27602273,.0001563,43.0012,24.8806,282.7595,77.3082,0,U,64390,999,5641,.90624E-3,.24777E-3,0
STARLINK-34278,2025-127X,2026-06-07T22:38:38.146848,15.27600246,.00000783,43.0049,29.7755,113.5599,246.5261,0,U,64391,999,5627,.69151128E-3,.18827E-3,0
STARLINK-33802,2025-127Y,2026-06-07T08:05:31.892352,15.27603246,.0000644,43.0086,33.8313,10.1575,349.9290,0,U,64392,999,5622,.80676E-3,.2202E-3,0
STARLINK-34419,2025-129A,2026-06-08T11:37:07.721760,14.98332465,.00041094,70.0003,205.6719,266.4118,93.6571,0,U,64412,999,5490,.33582987E-3,.3917E-4,0
STARLINK-34275,2025-129B,2026-06-09T04:44:46.597920,14.98347837,.0003853,70.0006,203.7558,267.7349,92.3369,0,U,64413,999,5499,.49476E-3,.5818E-4,0
STARLINK-34225,2025-129C,2026-06-08T19:49:48.163296,14.98345704,.0003685,70.0011,204.8637,270.6400,89.4337,0,U,64414,999,5493,.24869E-3,.2877E-4,0
STARLINK-34422,2025-129D,2026-06-09T04:56:34.142208,14.98342028,.0004313,70.0004,203.7873,263.6093,96.4575,0,U,64415,999,5493,.64246E-4,.674E-5,0
STARLINK-34514,2025-129E,2026-06-08T20:01:48.200160,14.98335132,.0003888,70.0003,204.4998,268.7603,91.3111,0,U,64416,999,5494,.2432E-3,.281E-4,0
STARLINK-34487,2025-129F,2026-06-08T20:07:48.838944,14.98333288,.0003652,70.0006,204.5114,269.5494,90.5246,0,U,64417,999,5488,.17655E-3,.2014E-4,0
STARLINK-34461,2025-129G,2026-06-08T19:44:02.780160,14.98336820,.0003723,70.0002,204.8510,271.7976,88.2757,0,U,64418,999,5493,.26013E-3,.3013E-4,0
STARLINK-34512,2025-129H,2026-06-08T11:25:06.500352,14.98332643,.00035667,70.0005,205.6471,268.3197,91.7554,0,U,64419,999,5482,.20182377E-3,.2316E-4,0
STARLINK-34503,2025-129J,2026-06-08T11:31:21.377856,14.98332798,.00037899,70.0008,205.6631,268.2809,91.7916,0,U,64420,999,5482,.22565542E-3,.2601E-4,0
STARLINK-34498,2025-129K,2026-06-09T04:50:33.838656,14.98348846,.0004017,70.0005,203.7738,265.8096,94.2604,0,U,64421,999,5499,.32537E-3,.3793E-4,0
STARLINK-34434,2025-129L,2026-06-08T19:43:48.549216,14.98335912,.0003966,70.0005,204.8544,269.7040,90.3665,0,U,64422,999,5493,.26151E-3,.3029E-4,0
STARLINK-34467,2025-129M,2026-06-09T04:32:32.303328,14.98348375,.0003176,70.0005,203.7277,270.5849,89.4947,0,U,64423,999,5499,.32432E-3,.3781E-4,0
STARLINK-34468,2025-129N,2026-06-08T19:50:04.834176,14.98337337,.0003987,70.0002,204.8681,269.1737,90.8965,0,U,64424,999,5493,.33156E-3,.3866E-4,0
STARLINK-34452,2025-129P,2026-06-08T23:26:21.809184,14.98325391,.0003209,70.0007,204.1862,274.5665,85.5128,0,U,64425,999,5496,.39098E-3,.4575E-4,0
STARLINK-34432,2025-129Q,2026-06-09T04:38:31.653024,14.98345796,.0004414,70.0005,203.7387,267.5064,92.5590,0,U,64426,999,5493,.44483E-3,.5221E-4,0
STARLINK-34480,2025-129R,2026-06-08T23:26:05.656704,14.98334211,.0003785,70.0006,204.1830,268.7063,91.3663,0,U,64427,999,5496,.1523E-3,.1725E-4,0
STARLINK-34495,2025-129S,2026-06-09T04:26:31.082208,14.98333056,.0003938,70.0005,203.7151,268.3744,91.6964,0,U,64428,999,5499,.19271E-3,.2207E-4,0
STARLINK-34501,2025-129T,2026-06-08T11:31:08.418720,14.98309197,.0003382,70.0008,205.6677,268.1707,91.9064,0,U,64429,999,5488,-.23847195E-3,-.2936E-4,0
STARLINK-34441,2025-129U,2026-06-08T20:43:52.790016,14.98335932,.0004059,70.0005,204.5982,267.6919,92.3776,0,U,64430,999,5494,.29746E-3,.3459E-4,0
STARLINK-34524,2025-129V,2026-06-08T20:19:49.986048,14.98334571,.0004166,70.0006,204.5390,267.5006,92.5677,0,U,64431,999,5488,.21016E-3,.2416E-4,0
STARLINK-34506,2025-129W,2026-06-08T19:55:47.654688,14.98333801,.0003792,70.0002,204.4809,269.2531,90.8194,0,U,64432,999,5488,.20286E-3,.2329E-4,0
STARLINK-34451,2025-129X,2026-06-08T11:37:21.980352,14.98344588,.00038054,70.0006,205.6766,263.3203,96.7523,0,U,64433,999,5482,.16150163E-3,.1835E-4,0
STARLINK-34472,2025-129Y,2026-06-09T04:50:48.009120,14.98336069,.0004043,70.0006,203.7686,267.7563,92.3133,0,U,64434,999,5499,.3045E-3,.3543E-4,0
STARLINK-34478,2025-129Z,2026-06-09T04:26:45.377088,14.98339136,.000348,70.0006,203.7107,267.7270,92.3490,0,U,64435,999,5493,.15268E-3,.173E-4,0
STARLINK-34396,2025-129AA,2026-06-08T11:25:20.632800,14.98334944,.00034384,70.0006,205.6400,268.8480,91.2285,0,U,64436,999,5482,.24116905E-3,.2786E-4,0
STARLINK-34507,2025-129AB,2026-06-08T20:08:01.360896,14.98364675,.0003974,70.0017,204.5081,268.8490,91.2214,0,U,64437,999,5494,.46894E-3,.5512E-4,0
STARLINK-34465,2025-130A,2026-06-08T21:12:14.749056,15.34410071,.0001471,53.1636,24.3609,101.9230,258.1937,0,U,64438,999,5467,.75612E-3,.25265E-3,0
STARLINK-34456,2025-130B,2026-06-08T21:36:21.389184,15.34418856,.0001324,53.1600,23.7592,85.1563,274.9591,0,U,64439,999,5468,.9034E-3,.30288E-3,0
STARLINK-34410,2025-130C,2026-06-08T21:57:29.596032,15.30219755,.0001484,53.1589,24.5542,79.2155,280.9013,0,U,64440,999,5467,.81554E-3,.23887E-3,0
STARLINK-34453,2025-130D,2026-06-08T20:38:55.430592,15.34412348,.0001362,53.1605,24.2221,92.7938,267.3220,0,U,64441,999,5467,.77265E-3,.25829E-3,0
STARLINK-34404,2025-130E,2026-06-08T20:54:04.563360,15.34397769,.0001424,53.1612,24.2861,87.5893,272.5272,0,U,64442,999,5467,.5073E-3,.16801E-3,0
STARLINK-34403,2025-130F,2026-06-08T22:00:31.761792,15.30215764,.0001076,53.1590,24.5612,83.9106,276.2018,0,U,64443,999,5467,.77709E-3,.22738E-3,0
STARLINK-34399,2025-130G,2026-06-08T21:33:19.713312,15.34414274,.0001164,53.1593,23.7424,42.8925,317.2168,0,U,64444,999,5468,.74218E-3,.24794E-3,0
STARLINK-34398,2025-130H,2026-06-08T21:30:18.406368,15.30214469,.000129,53.1617,25.1448,90.4403,269.6745,0,U,64445,999,5466,.84463E-3,.24751E-3,0
STARLINK-34402,2025-130J,2026-06-08T21:48:22.074048,15.30181206,.000121,53.1597,24.5144,92.4318,267.6821,0,U,64446,999,5467,.59455E-3,.1728E-3,0
STARLINK-34450,2025-130K,2026-06-08T21:27:16.159392,15.30237197,.0001156,53.1607,25.1299,82.0255,278.0877,0,U,64447,999,5466,.82902E-3,.24303E-3,0
STARLINK-34433,2025-130L,2026-06-08T21:37:53.539104,15.30224339,.0001395,53.1600,25.1767,84.9909,275.1251,0,U,64448,999,5466,.99499E-3,.29248E-3,0
STARLINK-34459,2025-130M,2026-06-08T21:06:11.729088,15.34403856,.0001432,53.1612,24.3342,77.6982,282.4181,0,U,64449,999,5467,.73441E-3,.24521E-3,0
STARLINK-34361,2025-130N,2026-06-08T21:57:34.093152,15.34420146,.0001392,53.1592,23.8460,95.3544,264.7618,0,U,64450,999,5585,.93045E-3,.31212E-3,0
STARLINK-34392,2025-130P,2026-06-08T21:34:51.032064,15.30183372,.000142,53.1612,25.1573,103.8069,256.3090,0,U,64451,999,5466,.52501E-3,.15214E-3,0
STARLINK-34367,2025-130Q,2026-06-08T20:32:31.932096,15.30176649,.0002068,53.1592,24.8976,152.6515,207.4595,0,U,64452,999,5465,.26434E-3,.7472E-4,0
STARLINK-34221,2025-130R,2026-06-08T21:30:17.868960,15.34407141,.0001102,53.1610,23.7311,82.0608,278.0520,0,U,64453,999,5468,.67593E-3,.22535E-3,0
STARLINK-34282,2025-130S,2026-06-08T19:13:16.425120,15.31713022,.0001019,53.1581,27.3903,91.9983,268.1135,0,U,64454,999,5462,.60017E-3,.18312E-3,0
STARLINK-34295,2025-130T,2026-06-08T21:42:23.743008,15.34442591,.0000963,53.1583,23.7768,74.6353,285.4755,0,U,64455,999,5468,.1047E-2,.35214E-3,0
STARLINK-34430,2025-130U,2026-06-08T21:55:58.182240,15.30213246,.000105,53.1582,24.5410,92.9560,267.1561,0,U,64456,999,5467,.59499E-3,.17311E-3,0
STARLINK-34445,2025-130V,2026-06-08T21:39:23.370048,15.34405831,.0001082,53.1601,23.7621,87.8547,272.2579,0,U,64457,999,5468,.77151E-3,.25785E-3,0
STARLINK-34439,2025-130W,2026-06-08T20:27:59.885280,15.30213131,.0001379,53.1595,24.8695,92.8248,267.2910,0,U,64458,999,5466,.94612E-3,.27778E-3,0
STARLINK-34421,2025-130X,2026-06-08T21:24:14.363424,15.34410005,.0001365,53.1601,23.6992,81.6747,278.4411,0,U,64459,999,5468,.87054E-3,.2916E-3,0
STARLINK-34423,2025-130Y,2026-06-08T21:52:56.108064,15.30232915,.0000375,53.1595,24.5254,112.0288,248.0752,0,U,64460,999,5467,.64996E-3,.1896E-3,0
STARLINK-34418,2025-130Z,2026-06-08T21:24:14.010912,15.30211829,.0001262,53.1618,25.1086,97.4390,262.6754,0,U,64461,999,5466,.53172E-3,.15427E-3,0
STARLINK-34336,2025-130AA,2026-06-08T21:07:23.094624,15.31719976,.0001561,53.1607,27.1067,92.0016,268.1164,0,U,64462,999,5463,.71088E-3,.21773E-3,0
STARLINK-34400,2025-130AB,2026-06-09T00:00:04.000320,15.31690976,.0000567,53.1607,26.9173,79.7188,67.4388,0,U,64463,999,583,.11334E-2,.34961E-3,0
STARLINK-34429,2025-130AC,2026-06-09T00:00:04.000320,15.34363822,.0001444,53.1597,23.2124,85.2171,141.3763,0,U,64464,999,589,.13277E-2,.44698E-3,0
STARLINK-34449,2025-130AD,2026-06-08T20:48:00.459072,15.34405326,.0001621,53.1605,24.2412,96.0441,264.0746,0,U,64465,999,5467,.75646E-3,.25273E-3,0
STARLINK-34493,2025-133A,2026-06-08T20:36:38.745792,15.30196625,.0000912,53.1586,53.5587,86.6999,273.4106,0,U,64472,999,5514,.8265E-3,.24197E-3,0
STARLINK-34492,2025-133B,2026-06-08T23:40:12.048384,15.30213840,.0001304,53.1578,52.9310,97.9298,262.1851,0,U,64473,999,5516,.78578E-3,.22995E-3,0
STARLINK-34474,2025-133C,2026-06-08T23:35:38.462784,15.30227279,.0001612,53.1595,52.9101,83.6959,276.4225,0,U,64474,999,5514,.79125E-3,.23168E-3,0
STARLINK-34523,2025-133D,2026-06-08T23:24:09.696672,15.34414013,.0001082,53.1587,50.0209,95.9535,264.1591,0,U,64475,999,5518,.10395E-2,.34925E-3,0
STARLINK-34496,2025-133E,2026-06-08T23:18:06.136704,15.34407373,.0000756,53.1586,49.9942,96.6049,263.5040,0,U,64476,999,5519,.77908E-3,.26044E-3,0
STARLINK-34375,2025-133F,2026-06-08T21:35:12.899040,15.34412537,.0001108,53.1594,50.2579,69.1545,290.9577,0,U,64477,999,5519,.81914E-3,.27412E-3,0
STARLINK-34490,2025-133G,2026-06-09T00:27:08.887104,15.30204305,.0001147,53.1598,52.4230,93.4282,266.6850,0,U,64478,999,5517,.56013E-3,.16269E-3,0
